{
  "type": "FeatureCollection",
  "features": [
    {
      "type": "Feature",
      "properties": {
        "norad_id": 35476,
        "name": "COSMOS 2251 DEB",
        "group": "cosmos-2251-debris",
        "lat": -68.35181706521017,
        "lon": 14.604843102428084,
        "alt_km": 655.5826350689649,
        "timestamp": "2025-12-12T16:50:33.542739+00:00",
        "meta_object_name": "COSMOS 2251 DEB",
        "meta_object_id": "1993-036ALW",
        "meta_epoch": "2025-12-12T06:03:58.512384",
        "meta_mean_motion": 14.7566701,
        "meta_eccentricity": 0.0017575,
        "meta_inclination": 73.9781,
        "meta_ra_of_asc_node": 61.8707,
        "meta_arg_of_pericenter": 43.3307,
        "meta_mean_anomaly": 17.2447,
        "meta_ephemeris_type": 0,
        "meta_classification_type": "U",
        "meta_norad_cat_id": 35476,
        "meta_element_set_no": 999,
        "meta_rev_at_epoch": 87880,
        "meta_bstar": 0.0026204434,
        "meta_mean_motion_dot": 0.00017965,
        "meta_mean_motion_ddot": 0,
        "tle_line1": "1 35476U 93036ALW 25346.25276056  .00017965  00000+0  26204-2 0  9992",
        "tle_line2": "2 35476  73.9781  61.8707 0017575  43.3307  17.2447 14.75667010878809"
      },
      "geometry": {
        "type": "Point",
        "coordinates": [
          14.604843102428084,
          -68.35181706521017
        ]
      }
    },
    {
      "type": "Feature",
      "properties": {
        "norad_id": 35580,
        "name": "COSMOS 2251 DEB",
        "group": "cosmos-2251-debris",
        "lat": 33.691058754661405,
        "lon": -170.11117895817156,
        "alt_km": 1122.2620285120302,
        "timestamp": "2025-12-12T16:50:33.542749+00:00",
        "meta_object_name": "COSMOS 2251 DEB",
        "meta_object_id": "1993-036ALX",
        "meta_epoch": "2025-12-10T21:17:20.461632",
        "meta_mean_motion": 13.83850084,
        "meta_eccentricity": 0.0281508,
        "meta_inclination": 73.9016,
        "meta_ra_of_asc_node": 181.8733,
        "meta_arg_of_pericenter": 187.4326,
        "meta_mean_anomaly": 172.2587,
        "meta_ephemeris_type": 0,
        "meta_classification_type": "U",
        "meta_norad_cat_id": 35580,
        "meta_element_set_no": 999,
        "meta_rev_at_epoch": 62231,
        "meta_bstar": 0.0026077,
        "meta_mean_motion_dot": 3.904e-05,
        "meta_mean_motion_ddot": 0,
        "tle_line1": "1 35580U 93036ALX 25344.88704238  .00003904  00000+0  26077-2 0  9999",
        "tle_line2": "2 35580  73.9016 181.8733 0281508 187.4326 172.2587 13.83850084622311"
      },
      "geometry": {
        "type": "Point",
        "coordinates": [
          -170.11117895817156,
          33.691058754661405
        ]
      }
    },
    {
      "type": "Feature",
      "properties": {
        "norad_id": 35583,
        "name": "COSMOS 2251 DEB",
        "group": "cosmos-2251-debris",
        "lat": 73.38598623340437,
        "lon": -43.12641780286801,
        "alt_km": 1267.590149483215,
        "timestamp": "2025-12-12T16:50:33.542760+00:00",
        "meta_object_name": "COSMOS 2251 DEB",
        "meta_object_id": "1993-036AMA",
        "meta_epoch": "2025-12-11T08:27:41.040576",
        "meta_mean_motion": 13.55331682,
        "meta_eccentricity": 0.03855091,
        "meta_inclination": 73.917,
        "meta_ra_of_asc_node": 214.2645,
        "meta_arg_of_pericenter": 238.8692,
        "meta_mean_anomaly": 117.4074,
        "meta_ephemeris_type": 0,
        "meta_classification_type": "U",
        "meta_norad_cat_id": 35583,
        "meta_element_set_no": 999,
        "meta_rev_at_epoch": 82393,
        "meta_bstar": 0.00091795353,
        "meta_mean_motion_dot": 1e-05,
        "meta_mean_motion_ddot": 0,
        "tle_line1": "1 35583U 93036AMA 25345.35255834  .00001000  00000+0  91795-3 0  9993",
        "tle_line2": "2 35583  73.9170 214.2645 0385509 238.8692 117.4074 13.55331682823931"
      },
      "geometry": {
        "type": "Point",
        "coordinates": [
          -43.12641780286801,
          73.38598623340437
        ]
      }
    },
    {
      "type": "Feature",
      "properties": {
        "norad_id": 35585,
        "name": "COSMOS 2251 DEB",
        "group": "cosmos-2251-debris",
        "lat": 47.97208720706659,
        "lon": 7.073068676638587,
        "alt_km": 1172.0862317223755,
        "timestamp": "2025-12-12T16:50:33.542770+00:00",
        "meta_object_name": "COSMOS 2251 DEB",
        "meta_object_id": "1993-036AMC",
        "meta_epoch": "2025-12-11T11:41:44.780640",
        "meta_mean_motion": 13.75243352,
        "meta_eccentricity": 0.03105022,
        "meta_inclination": 73.9732,
        "meta_ra_of_asc_node": 350.5027,
        "meta_arg_of_pericenter": 263.0041,
        "meta_mean_anomaly": 255.5124,
        "meta_ephemeris_type": 0,
        "meta_classification_type": "U",
        "meta_norad_cat_id": 35585,
        "meta_element_set_no": 999,
        "meta_rev_at_epoch": 64046,
        "meta_bstar": 0.0018464241,
        "meta_mean_motion_dot": 2.49e-05,
        "meta_mean_motion_ddot": 0,
        "tle_line1": "1 35585U 93036AMC 25345.48732385  .00002490  00000+0  18464-2 0  9995",
        "tle_line2": "2 35585  73.9732 350.5027 0310502 263.0041 255.5124 13.75243352640467"
      },
      "geometry": {
        "type": "Point",
        "coordinates": [
          7.073068676638587,
          47.97208720706659
        ]
      }
    },
    {
      "type": "Feature",
      "properties": {
        "norad_id": 35586,
        "name": "COSMOS 2251 DEB",
        "group": "cosmos-2251-debris",
        "lat": -60.5195908496836,
        "lon": 152.99343128648468,
        "alt_km": 943.2824385962085,
        "timestamp": "2025-12-12T16:50:33.542780+00:00",
        "meta_object_name": "COSMOS 2251 DEB",
        "meta_object_id": "1993-036AMD",
        "meta_epoch": "2025-12-09T15:43:44.050080",
        "meta_mean_motion": 13.52082947,
        "meta_eccentricity": 0.0404687,
        "meta_inclination": 74.02,
        "meta_ra_of_asc_node": 307.4172,
        "meta_arg_of_pericenter": 183.4058,
        "meta_mean_anomaly": 354.3417,
        "meta_ephemeris_type": 0,
        "meta_classification_type": "U",
        "meta_norad_cat_id": 35586,
        "meta_element_set_no": 999,
        "meta_rev_at_epoch": 60340,
        "meta_bstar": 0.00055296,
        "meta_mean_motion_dot": 5.88e-06,
        "meta_mean_motion_ddot": 0,
        "tle_line1": "1 35586U 93036AMD 25343.65537095  .00000588  00000+0  55296-3 0  9995",
        "tle_line2": "2 35586  74.0200 307.4172 0404687 183.4058 354.3417 13.52082947603405"
      },
      "geometry": {
        "type": "Point",
        "coordinates": [
          152.99343128648468,
          -60.5195908496836
        ]
      }
    },
    {
      "type": "Feature",
      "properties": {
        "norad_id": 35587,
        "name": "COSMOS 2251 DEB",
        "group": "cosmos-2251-debris",
        "lat": 73.85500278048583,
        "lon": 156.25731582483488,
        "alt_km": 713.5487209303001,
        "timestamp": "2025-12-12T16:50:33.542791+00:00",
        "meta_object_name": "COSMOS 2251 DEB",
        "meta_object_id": "1993-036AME",
        "meta_epoch": "2025-12-09T21:31:13.107072",
        "meta_mean_motion": 14.71502807,
        "meta_eccentricity": 0.01026846,
        "meta_inclination": 74.0052,
        "meta_ra_of_asc_node": 63.9631,
        "meta_arg_of_pericenter": 252.2421,
        "meta_mean_anomaly": 106.7524,
        "meta_ephemeris_type": 0,
        "meta_classification_type": "U",
        "meta_norad_cat_id": 35587,
        "meta_element_set_no": 999,
        "meta_rev_at_epoch": 66304,
        "meta_bstar": 0.00042332871,
        "meta_mean_motion_dot": 2.817e-05,
        "meta_mean_motion_ddot": 0,
        "tle_line1": "1 35587U 93036AME 25343.89667948  .00002817  00000+0  42333-3 0  9998",
        "tle_line2": "2 35587  74.0052  63.9631 0102684 252.2421 106.7524 14.71502807663044"
      },
      "geometry": {
        "type": "Point",
        "coordinates": [
          156.25731582483488,
          73.85500278048583
        ]
      }
    },
    {
      "type": "Feature",
      "properties": {
        "norad_id": 35593,
        "name": "COSMOS 2251 DEB",
        "group": "cosmos-2251-debris",
        "lat": -47.14351126153301,
        "lon": 126.42744669076089,
        "alt_km": 780.7803058696536,
        "timestamp": "2025-12-12T16:50:33.542801+00:00",
        "meta_object_name": "COSMOS 2251 DEB",
        "meta_object_id": "1993-036AML",
        "meta_epoch": "2025-12-11T12:48:43.495200",
        "meta_mean_motion": 14.25588674,
        "meta_eccentricity": 0.01052301,
        "meta_inclination": 74.0859,
        "meta_ra_of_asc_node": 290.6204,
        "meta_arg_of_pericenter": 297.3728,
        "meta_mean_anomaly": 61.6741,
        "meta_ephemeris_type": 0,
        "meta_classification_type": "U",
        "meta_norad_cat_id": 35593,
        "meta_element_set_no": 999,
        "meta_rev_at_epoch": 85048,
        "meta_bstar": 0.0017278074,
        "meta_mean_motion_dot": 4.311e-05,
        "meta_mean_motion_ddot": 0,
        "tle_line1": "1 35593U 93036AML 25345.53383675  .00004311  00000+0  17278-2 0  9990",
        "tle_line2": "2 35593  74.0859 290.6204 0105230 297.3728  61.6741 14.25588674850482"
      },
      "geometry": {
        "type": "Point",
        "coordinates": [
          126.42744669076089,
          -47.14351126153301
        ]
      }
    }
  ]
}